{"type": "FeatureCollection", "features": [{"type": "Feature", "properties": {"norad_id": 50032, "name": "COSMOS 1408 DEB", "group": "cosmos-1408-debris", "lat": -58.00850219021172, "lon": 35.59076032770219, "alt_km": 443.5833555771542, "timestamp": "2025-12-23T07:45:09.674910+00:00", "meta": {"OBJECT_NAME": "COSMOS 1408 DEB", "OBJECT_ID": "1982-092RU", "EPOCH": "2025-12-22T21:07:55.498080", "MEAN_MOTION": 15.45790756, "ECCENTRICITY": 0.00162798, "INCLINATION": 82.5631, "RA_OF_ASC_NODE": 48.1148, "ARG_OF_PERICENTER": 170.9741, "MEAN_ANOMALY": 189.1804, "EPHEMERIS_TYPE": 0, "CLASSIFICATION_TYPE": "U", "NORAD_CAT_ID": 50032, "ELEMENT_SET_NO": 999, "REV_AT_EPOCH": 22760, "BSTAR": 0.00011002137, "MEAN_MOTION_DOT": 5.394e-05, "MEAN_MOTION_DDOT": 0}, "tle": {"line1": "1 50032U 82092RU  25356.88050345  .00005394  00000+0  11002-3 0  9992", "line2": "2 50032  82.5631  48.1148 0016279 170.9741 189.1804 15.45790756227604"}}, "geometry": {"type": "Point", "coordinates": [35.59076032770219, -58.00850219021172]}}, {"type": "Feature", "properties": {"norad_id": 50058, "name": "COSMOS 1408 DEB", "group": "cosmos-1408-debris", "lat": 46.18273605361542, "lon": -129.51162131051154, "alt_km": 366.46557635387944, "timestamp": "2025-12-23T07:45:09.674931+00:00", "meta": {"OBJECT_NAME": "COSMOS 1408 DEB", "OBJECT_ID": "1982-092SW", "EPOCH": "2025-12-22T15:50:16.807200", "MEAN_MOTION": 15.64676766, "ECCENTRICITY": 0.00160247, "INCLINATION": 82.6119, "RA_OF_ASC_NODE": 58.9551, "ARG_OF_PERICENTER": 65.3088, "MEAN_ANOMALY": 294.9838, "EPHEMERIS_TYPE": 0, "CLASSIFICATION_TYPE": "U", "NORAD_CAT_ID": 50058, "ELEMENT_SET_NO": 999, "REV_AT_EPOCH": 22959, "BSTAR": 0.00032471532, "MEAN_MOTION_DOT": 0.00031739, "MEAN_MOTION_DDOT": 0}, "tle": {"line1": "1 50058U 82092SW  25356.65991675  .00031739  00000+0  32472-3 0  9991", "line2": "2 50058  82.6119  58.9551 0016024  65.3088 294.9838 15.64676766229597"}}, "geometry": {"type": "Point", "coordinates": [-129.51162131051154, 46.18273605361542]}}, {"type": "Feature", "properties": {"norad_id": 50404, "name": "COSMOS 1408 DEB", "group": "cosmos-1408-debris", "lat": 31.71052961094948, "lon": 19.32821200044895, "alt_km": 406.0172512137515, "timestamp": "2025-12-23T07:45:09.674944+00:00", "meta": {"OBJECT_NAME": "COSMOS 1408 DEB", "OBJECT_ID": "1982-092ADS", "EPOCH": "2025-12-22T15:15:15.881472", "MEAN_MOTION": 15.15279267, "ECCENTRICITY": 0.01679121, "INCLINATION": 82.2023, "RA_OF_ASC_NODE": 204.8909, "ARG_OF_PERICENTER": 164.9252, "MEAN_ANOMALY": 195.7077, "EPHEMERIS_TYPE": 0, "CLASSIFICATION_TYPE": "U", "NORAD_CAT_ID": 50404, "ELEMENT_SET_NO": 999, "REV_AT_EPOCH": 21343, "BSTAR": 0.0032150607, "MEAN_MOTION_DOT": 0.00087438, "MEAN_MOTION_DDOT": 0}, "tle": {"line1": "1 50404U 82092ADS 25356.63560048  .00087438  00000+0  32151-2 0  9990", "line2": "2 50404  82.2023 204.8909 0167912 164.9252 195.7077 15.15279267213433"}}, "geometry": {"type": "Point", "coordinates": [19.32821200044895, 31.71052961094948]}}, {"type": "Feature", "properties": {"norad_id": 50621, "name": "COSMOS 1408 DEB", "group": "cosmos-1408-debris", "lat": -44.553077590759614, "lon": -109.45822769795497, "alt_km": 409.5083336710113, "timestamp": "2025-12-23T07:45:09.674955+00:00", "meta": {"OBJECT_NAME": "COSMOS 1408 DEB", "OBJECT_ID": "1982-092ALR", "EPOCH": "2025-12-22T10:44:32.812800", "MEAN_MOTION": 15.57134426, "ECCENTRICITY": 0.00290323, "INCLINATION": 82.5695, "RA_OF_ASC_NODE": 64.0714, "ARG_OF_PERICENTER": 117.4575, "MEAN_ANOMALY": 242.9638, "EPHEMERIS_TYPE": 0, "CLASSIFICATION_TYPE": "U", "NORAD_CAT_ID": 50621, "ELEMENT_SET_NO": 999, "REV_AT_EPOCH": 22401, "BSTAR": 0.00037475493, "MEAN_MOTION_DOT": 0.00027795, "MEAN_MOTION_DDOT": 0}, "tle": {"line1": "1 50621U 82092ALR 25356.44760200  .00027795  00000+0  37475-3 0  9997", "line2": "2 50621  82.5695  64.0714 0029032 117.4575 242.9638 15.57134426224010"}}, "geometry": {"type": "Point", "coordinates": [-109.45822769795497, -44.553077590759614]}}]}